ORBCOMM FM05            
1 25117U 97084F   25361.69552129  .00001906  00000+0  56133-3 0  9996
2 25117  45.0130 158.4203 0002923 133.5524 226.5571 14.46753790468623
ORBCOMM FM06            
1 25118U 97084G   25362.18352022  .00001971  00000+0  57704-3 0  9999
2 25118  45.0121 155.5779 0001943 146.5896  22.9970 14.46918511469612
ORBCOMM FM07            
1 25119U 97084H   25362.16323860  .00002021  00000+0  59064-3 0  9994
2 25119  45.0117 156.4231 0003654 128.8753 231.2425 14.46932921469607
ORBCOMM FM03            
1 25158U 98007B   25362.30146738  .00001731  00000+0  64422-3 0  9997
2 25158 107.9649 174.4928 0046863 268.7756  90.8015 14.35070837451889
ORBCOMM FM04            
1 25159U 98007C   25362.25252519  .00001632  00000+0  60837-3 0  9993
2 25159 107.9640 177.7457 0042655 266.2832  93.3430 14.35315400452065
ORBCOMM FM17            
1 25413U 98046A   25362.17716584  .00001169  00000+0  45080-3 0  9995
2 25413  44.9947  61.7639 0001860 159.0706 201.0217 14.35571001431041
ORBCOMM FM18            
1 25414U 98046B   25361.44404758  .00001464  00000+0  51379-3 0  9998
2 25414  44.9941 337.3541 0003923 206.2084 153.8567 14.39193836432083
ORBCOMM FM19            
1 25415U 98046C   25362.25180044  .00001816  00000+0  62851-3 0  9996
2 25415  44.9951 335.8122 0002748 216.0229 158.6104 14.39020260432155
